[{"OBJECT_NAME":"STARLINK-5692","OBJECT_ID":"2023-015AL","EPOCH":"2026-03-09T22:00:01.999584","MEAN_MOTION":15.14614631,"ECCENTRICITY":0.00018517,"INCLINATION":43.0005,"RA_OF_ASC_NODE":337.2774,"ARG_OF_PERICENTER":261.2422,"MEAN_ANOMALY":100.4471,"EPHEMERIS_TYPE":0,"CLASSIFICATION_TYPE":"U","NORAD_CAT_ID":55483,"ELEMENT_SET_NO":999,"REV_AT_EPOCH":577,"BSTAR":0.0025102028,"MEAN_MOTION_DOT":0.00047286,"MEAN_MOTION_DDOT":0},{"OBJECT_NAME":"QPS-SAR-5 (TSUKUYOMI-I)","OBJECT_ID":"2023-196A","EPOCH":"2026-03-09T21:54:21.440160","MEAN_MOTION":15.20129575,"ECCENTRICITY":0.00250737,"INCLINATION":42.0101,"RA_OF_ASC_NODE":220.2642,"ARG_OF_PERICENTER":332.3475,"MEAN_ANOMALY":27.6024,"EPHEMERIS_TYPE":0,"CLASSIFICATION_TYPE":"U","NORAD_CAT_ID":58578,"ELEMENT_SET_NO":999,"REV_AT_EPOCH":12312,"BSTAR":0.00079111792,"MEAN_MOTION_DOT":0.00017399,"MEAN_MOTION_DDOT":0}]
